{
  "type": "FeatureCollection",
  "metadata": {
    "title": "Assam Flood Affected Settlements (2026 Situation Snapshot)",
    "region": "assam",
    "hazard_primary": "flood",
    "state": "Assam",
    "provenance_note": "Demographic and district impact statistics sourced from ASDMA Flood Situation Reports (August 2026 Snapshot). Settlement point centroids represent representative high-inundation revenue villages/mouzas across 13 priority flood-affected districts."
  },
  "features": [
    {
      "type": "Feature",
      "properties": {
        "id": "assam-nagaon-kaliabor",
        "name": "Kaliabor Mouza",
        "district": "Nagaon",
        "state": "Assam",
        "role": "origin",
        "current_population": 4820,
        "population": 4820,
        "affected_population": 4150,
        "flood_hazard_class": "very_high",
        "hazard_class_flood": "very_high",
        "hazard_class_landslide": "low",
        "inundation_status": "active",
        "elevation_m": 48,
        "safe_land_area_hectares": 3.2,
        "max_safe_density_per_hectare": 120,
        "vulnerability_index": 0.89,
        "data_confidence": "OFFICIAL",
        "data_sources": ["ASDMA Daily Situation Report (08 Aug 2026)", "District Disaster Management Plan - Nagaon"]
      },
      "geometry": { "type": "Point", "coordinates": [92.985, 26.582] }
    },
    {
      "type": "Feature",
      "properties": {
        "id": "assam-golaghat-bokakhat",
        "name": "Bokakhat Lowlands (Kaziranga Buffer)",
        "district": "Golaghat",
        "state": "Assam",
        "role": "origin",
        "current_population": 6120,
        "population": 6120,
        "affected_population": 5400,
        "flood_hazard_class": "very_high",
        "hazard_class_flood": "very_high",
        "hazard_class_landslide": "low",
        "inundation_status": "active",
        "elevation_m": 56,
        "safe_land_area_hectares": 4.1,
        "max_safe_density_per_hectare": 120,
        "vulnerability_index": 0.93,
        "data_confidence": "OFFICIAL",
        "data_sources": ["ASDMA Flood Bulletin (Kaziranga Catchment - Aug 2026)", "DDMA Golaghat"]
      },
      "geometry": { "type": "Point", "coordinates": [93.591, 26.643] }
    },
    {
      "type": "Feature",
      "properties": {
        "id": "assam-jorhat-majuli-fringe",
        "name": "Jorhat Riverine Fringe (Nimati Ghat)",
        "district": "Jorhat",
        "state": "Assam",
        "role": "origin",
        "current_population": 3750,
        "population": 3750,
        "affected_population": 3200,
        "flood_hazard_class": "very_high",
        "hazard_class_flood": "very_high",
        "hazard_class_landslide": "low",
        "inundation_status": "active",
        "elevation_m": 82,
        "safe_land_area_hectares": 2.5,
        "max_safe_density_per_hectare": 120,
        "vulnerability_index": 0.86,
        "data_confidence": "OFFICIAL",
        "data_sources": ["CWC Brahmaputra Water Level Gauging - Nimati", "ASDMA Situation Report"]
      },
      "geometry": { "type": "Point", "coordinates": [94.254, 26.858] }
    },
    {
      "type": "Feature",
      "properties": {
        "id": "assam-sivasagar-demow",
        "name": "Demow Char Sector",
        "district": "Sivasagar",
        "state": "Assam",
        "role": "origin",
        "current_population": 3100,
        "population": 3100,
        "affected_population": 2680,
        "flood_hazard_class": "high",
        "hazard_class_flood": "high",
        "hazard_class_landslide": "low",
        "inundation_status": "affected",
        "elevation_m": 92,
        "safe_land_area_hectares": 3.0,
        "max_safe_density_per_hectare": 120,
        "vulnerability_index": 0.79,
        "data_confidence": "OFFICIAL",
        "data_sources": ["DDMA Sivasagar Daily Flood Briefing"]
      },
      "geometry": { "type": "Point", "coordinates": [94.745, 27.025] }
    },
    {
      "type": "Feature",
      "properties": {
        "id": "assam-dhemaji-jonai",
        "name": "Jonai Flood Plain",
        "district": "Dhemaji",
        "state": "Assam",
        "role": "origin",
        "current_population": 5200,
        "population": 5200,
        "affected_population": 4850,
        "flood_hazard_class": "very_high",
        "hazard_class_flood": "very_high",
        "hazard_class_landslide": "low",
        "inundation_status": "active",
        "elevation_m": 105,
        "safe_land_area_hectares": 3.8,
        "max_safe_density_per_hectare": 120,
        "vulnerability_index": 0.91,
        "data_confidence": "OFFICIAL",
        "data_sources": ["ASDMA Dhemaji Flood Assessment", "DDMA Dhemaji"]
      },
      "geometry": { "type": "Point", "coordinates": [95.163, 27.781] }
    },
    {
      "type": "Feature",
      "properties": {
        "id": "assam-lakhimpur-bihpuria",
        "name": "Bihpuria Lowlands (Dikrong Confluence)",
        "district": "Lakhimpur",
        "state": "Assam",
        "role": "origin",
        "current_population": 4400,
        "population": 4400,
        "affected_population": 3800,
        "flood_hazard_class": "high",
        "hazard_class_flood": "high",
        "hazard_class_landslide": "low",
        "inundation_status": "affected",
        "elevation_m": 98,
        "safe_land_area_hectares": 3.5,
        "max_safe_density_per_hectare": 120,
        "vulnerability_index": 0.81,
        "data_confidence": "OFFICIAL",
        "data_sources": ["DDMA Lakhimpur Situation Report", "ASDMA"]
      },
      "geometry": { "type": "Point", "coordinates": [93.882, 27.019] }
    },
    {
      "type": "Feature",
      "properties": {
        "id": "assam-sonitpur-tezpur-fringe",
        "name": "Tezpur Chars & Bhomoraguri",
        "district": "Sonitpur",
        "state": "Assam",
        "role": "origin",
        "current_population": 4100,
        "population": 4100,
        "affected_population": 3350,
        "flood_hazard_class": "high",
        "hazard_class_flood": "high",
        "hazard_class_landslide": "low",
        "inundation_status": "affected",
        "elevation_m": 52,
        "safe_land_area_hectares": 3.6,
        "max_safe_density_per_hectare": 120,
        "vulnerability_index": 0.77,
        "data_confidence": "OFFICIAL",
        "data_sources": ["DDMA Sonitpur Flood Report"]
      },
      "geometry": { "type": "Point", "coordinates": [92.834, 26.621] }
    },
    {
      "type": "Feature",
      "properties": {
        "id": "assam-biswanath-chariali",
        "name": "Biswanath Ghat Lowland Sector",
        "district": "Biswanath",
        "state": "Assam",
        "role": "origin",
        "current_population": 3600,
        "population": 3600,
        "affected_population": 2900,
        "flood_hazard_class": "high",
        "hazard_class_flood": "high",
        "hazard_class_landslide": "low",
        "inundation_status": "affected",
        "elevation_m": 76,
        "safe_land_area_hectares": 3.1,
        "max_safe_density_per_hectare": 120,
        "vulnerability_index": 0.75,
        "data_confidence": "OFFICIAL",
        "data_sources": ["ASDMA Situation Bulletin"]
      },
      "geometry": { "type": "Point", "coordinates": [93.167, 26.732] }
    },
    {
      "type": "Feature",
      "properties": {
        "id": "assam-darrang-mangaldai-chars",
        "name": "Mangaldai Sialmari Chars",
        "district": "Darrang",
        "state": "Assam",
        "role": "origin",
        "current_population": 4900,
        "population": 4900,
        "affected_population": 4200,
        "flood_hazard_class": "very_high",
        "hazard_class_flood": "very_high",
        "hazard_class_landslide": "low",
        "inundation_status": "active",
        "elevation_m": 46,
        "safe_land_area_hectares": 3.0,
        "max_safe_density_per_hectare": 120,
        "vulnerability_index": 0.88,
        "data_confidence": "OFFICIAL",
        "data_sources": ["DDMA Darrang Flood Situation Summary"]
      },
      "geometry": { "type": "Point", "coordinates": [92.031, 26.438] }
    },
    {
      "type": "Feature",
      "properties": {
        "id": "assam-hojai-doboka",
        "name": "Doboka Kopili River Basin",
        "district": "Hojai",
        "state": "Assam",
        "role": "origin",
        "current_population": 3800,
        "population": 3800,
        "affected_population": 3100,
        "flood_hazard_class": "high",
        "hazard_class_flood": "high",
        "hazard_class_landslide": "low",
        "inundation_status": "affected",
        "elevation_m": 58,
        "safe_land_area_hectares": 3.4,
        "max_safe_density_per_hectare": 120,
        "vulnerability_index": 0.74,
        "data_confidence": "OFFICIAL",
        "data_sources": ["Kopili Basin Inundation Map", "DDMA Hojai"]
      },
      "geometry": { "type": "Point", "coordinates": [92.862, 26.008] }
    },
    {
      "type": "Feature",
      "properties": {
        "id": "assam-charaideo-sonari",
        "name": "Sonari Disang Catchment",
        "district": "Charaideo",
        "state": "Assam",
        "role": "origin",
        "current_population": 2900,
        "population": 2900,
        "affected_population": 2100,
        "flood_hazard_class": "moderate",
        "hazard_class_flood": "moderate",
        "hazard_class_landslide": "low",
        "inundation_status": "recovering",
        "elevation_m": 108,
        "safe_land_area_hectares": 4.5,
        "max_safe_density_per_hectare": 120,
        "vulnerability_index": 0.62,
        "data_confidence": "OFFICIAL",
        "data_sources": ["DDMA Charaideo Flood Bulletin"]
      },
      "geometry": { "type": "Point", "coordinates": [95.021, 26.968] }
    },
    {
      "type": "Feature",
      "properties": {
        "id": "assam-udalguri-mazbat",
        "name": "Mazbat Dhansiri Flood Channel",
        "district": "Udalguri",
        "state": "Assam",
        "role": "origin",
        "current_population": 3300,
        "population": 3300,
        "affected_population": 2450,
        "flood_hazard_class": "moderate",
        "hazard_class_flood": "moderate",
        "hazard_class_landslide": "low",
        "inundation_status": "affected",
        "elevation_m": 88,
        "safe_land_area_hectares": 3.9,
        "max_safe_density_per_hectare": 120,
        "vulnerability_index": 0.65,
        "data_confidence": "OFFICIAL",
        "data_sources": ["DDMA Udalguri Situation Note"]
      },
      "geometry": { "type": "Point", "coordinates": [92.342, 26.791] }
    },
    {
      "type": "Feature",
      "properties": {
        "id": "assam-kamrup-metro-chandrapur",
        "name": "Chandrapur Riverbank Habitations",
        "district": "Kamrup Metropolitan",
        "state": "Assam",
        "role": "origin",
        "current_population": 4600,
        "population": 4600,
        "affected_population": 3600,
        "flood_hazard_class": "high",
        "hazard_class_flood": "high",
        "hazard_class_landslide": "low",
        "inundation_status": "affected",
        "elevation_m": 54,
        "safe_land_area_hectares": 3.2,
        "max_safe_density_per_hectare": 120,
        "vulnerability_index": 0.78,
        "data_confidence": "OFFICIAL",
        "data_sources": ["ASDMA Kamrup Metro Flood Cell"]
      },
      "geometry": { "type": "Point", "coordinates": [91.912, 26.195] }
    }
  ]
}
